STARLINK-5688           
1 55479U 23015AG  26068.00548711  .00000172  00000+0  27848-4 0  9991
2 55479  43.0057 317.3377 0001566 265.3428  94.7236 15.02536651170799
2024-205C               
1 61896U 24205C   26067.20867002  .00012247  00000+0  67177-3 0  9995
2 61896  97.4204 141.0161 0044383 341.9375  18.0277 15.13448144 72971
